{"fetched_at":"2026-03-29T02:12:04Z","count":15717,"tles":[{"name":"STARLINK-35295","line1":"1 66070U 25235N   26087.60836602  .00030150  00000+0  10259-2 0  9997","line2":"2 66070  53.1590 157.7011 0001230  77.4707 282.6432 15.30201774 25817","category":"Starlink"}]}